NORAD_CAT_ID,OBJECT_NAME,OBJECT_TYPE,EPOCH,MEAN_MOTION,ECCENTRICITY,INCLINATION,RA_OF_ASC_NODE,ARG_OF_PERICENTER,MEAN_ANOMALY,BSTAR,MEAN_MOTION_DOT,MEAN_MOTION_DDOT,TLE_LINE0,TLE_LINE1,TLE_LINE2,SEMIMAJOR_AXIS,PERIOD,APOGEE,PERIGEE,DECAYED
53566.0,STARLINK-4576,PAYLOAD,2022-12-15 05:08:11,15.08836735,0.0001455,53.2159,313.459,58.1822,301.9311,-2.0722e-05,-6.18e-06,0.0,0 STARLINK-4576,1 53566U 22101AR  22349.21401741 -.00000618  00000-0 -20722-4 0  9995,2 53566  53.2159 313.4590 0001455  58.1822 301.9311 15.08836735 18236,6917.89,95.438,540.762,538.749,0.0
53566.0,STARLINK-4576,PAYLOAD,2022-12-15 06:43:34,15.08836668,0.0001479,53.2161,313.1616,59.1829,300.9309,-1.0427e-05,-4.54e-06,0.0,0 STARLINK-4576,1 53566U 22101AR  22349.28025720 -.00000454  00000-0 -10427-4 0  9990,2 53566  53.2161 313.1616 0001479  59.1829 300.9309 15.08836668 18937,6917.891,95.438,540.779,538.732,0.0
53566.0,STARLINK-4576,PAYLOAD,2022-12-15 21:02:02,15.08837807,0.0001188,53.2161,310.4856,62.5518,297.5595,-1.4492e-05,-5.18e-06,0.0,0 STARLINK-4576,1 53566U 22101AR  22349.87641694 -.00000518  00000-0 -14492-4 0  9996,2 53566  53.2161 310.4856 0001188  62.5518 297.5595 15.08837807 19028,6917.887,95.438,540.5740000000002,538.93,0.0
53566.0,STARLINK-4576,PAYLOAD,2022-12-16 06:34:21,15.08839687,0.0001412,53.2166,308.6997,63.0319,297.0817,-3.2917e-05,-8.12e-06,0.0,0 STARLINK-4576,1 53566U 22101AR  22350.27385722 -.00000812  00000-0 -32917-4 0  9998,2 53566  53.2166 308.6997 0001412  63.0319 297.0817 15.08839687 18392,6917.880999999999,95.438,540.7230000000002,538.77,0.0
53566.0,STARLINK-4576,PAYLOAD,2022-12-16 14:31:17,15.08828269,0.0001402,53.2158,307.2126,67.7691,292.345,-1.5987e-05,-5.42e-06,0.0,0 STARLINK-4576,1 53566U 22101AR  22350.60506551 -.00000542  00000-0 -15987-4 0  9998,2 53566  53.2158 307.2126 0001402  67.7691 292.3450 15.08828269 18446,6917.916,95.438,540.751,538.811,0.0
53566.0,STARLINK-4576,PAYLOAD,2022-12-16 20:52:50,15.08830319,0.0001414,53.2169,306.021,60.0476,300.0657,8.442e-06,-1.54e-06,0.0,0 STARLINK-4576,1 53566U 22101AR  22350.87002409 -.00000154  00000-0  84420-5 0  9997,2 53566  53.2169 306.0210 0001414  60.0476 300.0657 15.08830319 19175,6917.91,95.438,540.753,538.797,0.0
53566.0,STARLINK-4576,PAYLOAD,2022-12-17 01:38:59,15.08835108,0.0001115,53.2166,305.1331,56.6254,303.4845,2.9802e-05,1.86e-06,0.0,0 STARLINK-4576,1 53566U 22101AR  22351.06874002  .00000186  00000-0  29802-4 0  9991,2 53566  53.2166 305.1331 0001115  56.6254 303.4845 15.08835108 18513,6917.895,95.438,540.5319999999998,538.989,0.0
53566.0,STARLINK-4576,PAYLOAD,2022-12-17 06:25:08,15.08841443,0.0001330999999999,53.2166,304.2404,60.7504,299.3621,-1.4865e-05,-5.24e-06,0.0,0 STARLINK-4576,1 53566U 22101AR  22351.26745851 -.00000524  00000-0 -14865-4 0  9993,2 53566  53.2166 304.2404 0001331  60.7504 299.3621 15.08841443 19232,6917.876,95.437,540.6619999999998,538.82,0.0
53566.0,STARLINK-4576,PAYLOAD,2022-12-17 14:22:04,15.08838386,0.0001421,53.2166,302.7535,61.163,298.9505,3.8828e-05,3.3e-06,0.0,0 STARLINK-4576,1 53566U 22101AR  22351.59865842  .00000330  00000-0  38828-4 0  9990,2 53566  53.2166 302.7535 0001421  61.1630 298.9505 15.08838386 19288,6917.885,95.438,540.7330000000002,538.7669999999998,0.0
53566.0,STARLINK-4576,PAYLOAD,2022-12-18 06:15:56,15.08830166,0.0001498,53.2166,299.7806,59.0977,301.0162,-8.243099999999999e-06,-4.19e-06,0.0,0 STARLINK-4576,1 53566U 22101AR  22352.26106717 -.00000419  00000-0 -82431-5 0  9994,2 53566  53.2166 299.7806 0001498  59.0977 301.0162 15.08830166 18695,6917.91,95.438,540.812,538.739,0.0
53566.0,STARLINK-4576,PAYLOAD,2022-12-18 14:12:52,15.0883084,0.0001624,53.2169,298.2941,62.2074,297.9082,-2.643e-05,-7.09e-06,0.0,0 STARLINK-4576,1 53566U 22101AR  22352.59226912 -.00000709  00000-0 -26430-4 0  9998,2 53566  53.2169 298.2941 0001624  62.2074 297.9082 15.08830840 19433,6917.908,95.438,540.8969999999998,538.65,0.0
53566.0,STARLINK-4576,PAYLOAD,2022-12-19 06:06:42,15.08841752,0.0001522,53.2167,295.3187,71.9767,288.1391,2.3218e-05,8.2e-07,0.0,0 STARLINK-4576,1 53566U 22101AR  22353.25466231  .00000082  00000-0  23218-4 0  9995,2 53566  53.2167 295.3187 0001522  71.9767 288.1391 15.08841752 18847,6917.875,95.437,540.793,538.687,0.0
53566.0,STARLINK-4576,PAYLOAD,2022-12-20 05:57:29,15.08845887,0.0001435,53.2168,290.8592,74.0061,286.1090000000001,8.0518e-05,9.94e-06,0.0,0 STARLINK-4576,1 53566U 22101AR  22354.24825787  .00000994  00000-0  80518-4 0  9998,2 53566  53.2168 290.8592 0001435  74.0061 286.1090 15.08845887 19682,6917.861999999999,95.437,540.72,538.735,0.0
53566.0,STARLINK-4576,PAYLOAD,2022-12-20 20:15:59,15.08824642,0.0001148,53.2176,288.1811,72.9783,287.1335,-0.00014375,-2.574e-05,0.0,0 STARLINK-4576,1 53566U 22101AR  22354.84444376 -.00002574  00000-0 -14375-3 0  9990,2 53566  53.2176 288.1811 0001148  72.9783 287.1335 15.08824642 19087,6917.927,95.439,540.587,538.998,0.0
53566.0,STARLINK-4576,PAYLOAD,2022-12-21 04:12:55,15.08831009,0.000147,53.2186,286.6977,85.041,275.075,-8.8883e-05,-1.702e-05,0.0,0 STARLINK-4576,1 53566U 22101AR  22355.17564119 -.00001702  00000-0 -88883-4 0  9993,2 53566  53.2186 286.6977 0001470  85.0410 275.0750 15.08831009 19132,6917.908,95.438,540.79,538.756,0.0
53566.0,STARLINK-4576,PAYLOAD,2022-12-21 12:09:50,15.08838614,0.0001518,53.218,285.2095,87.462,272.6546,-1.6372000000000002e-05,-5.49e-06,0.0,0 STARLINK-4576,1 53566U 22101AR  22355.50683381 -.00000549  00000-0 -16372-4 0  9995,2 53566  53.2180 285.2095 0001518  87.4620 272.6546 15.08838614 19870,6917.885,95.438,540.8,538.6990000000002,0.0
53566.0,STARLINK-4576,PAYLOAD,2022-12-22 12:00:36,15.0885014,0.0001495,53.2176,280.7485,85.9906,274.1257,1.6395e-05,-2.7e-07,0.0,0 STARLINK-4576,1 53566U 22101AR  22356.50042181 -.00000027  00000-0  16395-4 0  9998,2 53566  53.2176 280.7485 0001495  85.9906 274.1257 15.08850140 20025,6917.849,95.437,540.749,538.68,0.0
53566.0,STARLINK-4576,PAYLOAD,2022-12-23 03:54:29,15.08832441,0.000136,53.217,277.7762,97.9147,262.1999,-1.0857e-05,-4.61e-06,0.0,0 STARLINK-4576,1 53566U 22101AR  22357.16283645 -.00000461  00000-0 -10857-4 0  9993,2 53566  53.2170 277.7762 0001360  97.9147 262.1999 15.08832441 19431,6917.903,95.438,540.7090000000002,538.828,0.0
53566.0,STARLINK-4576,PAYLOAD,2022-12-23 11:51:24,15.0883479,0.0001351,53.2169,276.2894,96.0327,264.0819,-1.5399999999999998e-05,-5.33e-06,0.0,0 STARLINK-4576,1 53566U 22101AR  22357.49403596 -.00000533  00000-0 -15400-4 0  9997,2 53566  53.2169 276.2894 0001351  96.0327 264.0819 15.08834790 20173,6917.896,95.438,540.696,538.827,0.0
53566.0,STARLINK-4576,PAYLOAD,2022-12-24 03:45:14,15.088579800000002,0.000146,53.2168,273.3152,101.0565,259.0592,-2.9256e-05,-7.54e-06,0.0,0 STARLINK-4576,1 53566U 22101AR  22358.15641899 -.00000754  00000-0 -29256-4 0  9990,2 53566  53.2168 273.3152 0001460 101.0565 259.0592 15.08857980 19580,6917.825,95.436,540.7,538.68,0.0
53566.0,STARLINK-4576,PAYLOAD,2022-12-24 11:42:10,15.08843724,0.0001568,53.2172,271.8278,89.5982,270.519,8.575e-06,-1.52e-06,0.0,0 STARLINK-4576,1 53566U 22101AR  22358.48762490 -.00000152  00000-0  85750-5 0  9990,2 53566  53.2172 271.8278 0001568  89.5982 270.5190 15.08843724 19638,6917.869000000002,95.437,540.819,538.649,0.0
53566.0,STARLINK-4576,PAYLOAD,2022-12-25 11:32:58,15.08832931,0.0001404,53.2167,267.3677,90.7521,269.3632,2.3254e-05,8.2e-07,0.0,0 STARLINK-4576,1 53566U 22101AR  22359.48122853  .00000082  00000-0  23254-4 0  9995,2 53566  53.2167 267.3677 0001404  90.7521 269.3632 15.08832931 19788,6917.901999999999,95.438,540.738,538.7959999999998,0.0
53566.0,STARLINK-4576,PAYLOAD,2022-12-26 11:23:45,15.08841038,0.0001641999999999,53.2174,262.9074,90.1414,269.9766,-4.938600000000001e-05,-1.074e-05,0.0,0 STARLINK-4576,1 53566U 22101AR  22360.47482781 -.00001074  00000-0 -49386-4 0  9993,2 53566  53.2174 262.9074 0001642  90.1414 269.9766 15.08841038 20624,6917.877,95.437,540.878,538.606,0.0
53566.0,STARLINK-4576,PAYLOAD,2022-12-27 01:42:13,15.08795297,0.0001806,53.2175,260.2315,98.5991,261.5206,0.00052656,8.092e-05,0.0,0 STARLINK-4576,1 53566U 22101AR  22361.07099269  .00008092  00000-0  52656-3 0  9993,2 53566  53.2175 260.2315 0001806  98.5991 261.5206 15.08795297 20024,6918.017,95.44,541.131,538.633,0.0
53566.0,STARLINK-4576,PAYLOAD,2022-12-27 03:17:36,15.08853526,0.0001706,53.2176,259.9342,90.5362,269.5825,-0.00015076,-2.688e-05,0.0,0 STARLINK-4576,1 53566U 22101AR  22361.13722437 -.00002688  00000-0 -15076-3 0  9992,2 53566  53.2176 259.9342 0001706  90.5362 269.5825 15.08853526 20039,6917.839,95.437,540.884,538.524,0.0
53566.0,STARLINK-4576,PAYLOAD,2022-12-28 03:08:22,15.08849611,0.0001475,53.2174,255.4731,91.4038,268.7123,0.00013314,1.832e-05,0.0,0 STARLINK-4576,1 53566U 22101AR  22362.13081191  .00001832  00000-0  13314-3 0  9999,2 53566  53.2174 255.4731 0001475  91.4038 268.7123 15.08849611 20877,6917.851,95.437,540.736,538.696,0.0
53566.0,STARLINK-4576,PAYLOAD,2022-12-28 23:48:24,15.088281699999998,0.0001408,53.2171,251.6076,90.8823,269.233,-4.107300000000001e-05,-9.41e-06,0.0,0 STARLINK-4576,1 53566U 22101AR  22362.99195264 -.00000941  00000-0 -41073-4 0  9996,2 53566  53.2171 251.6076 0001408  90.8823 269.2330 15.08828170 20317,6917.917,95.438,540.756,538.808,0.0
53566.0,STARLINK-4576,PAYLOAD,2022-12-29 09:20:44,15.08825359,0.0001155999999999,53.2165,249.8231,83.6404,276.4719,-0.00017588,-3.085e-05,0.0,0 STARLINK-4576,1 53566U 22101AR  22363.38940157 -.00003085  00000-0 -17588-3 0  9994,2 53566  53.2165 249.8231 0001156  83.6404 276.4719 15.08825359 21067,6917.925,95.438,540.59,538.99,0.0
53566.0,STARLINK-4576,PAYLOAD,2022-12-30 02:49:58,15.08832122,0.0001274,53.2167,246.552,86.7383,273.3755,-0.00013204,-2.388e-05,0.0,0 STARLINK-4576,1 53566U 22101AR  22364.11804076 -.00002388  00000-0 -13204-3 0  9991,2 53566  53.2167 246.5520 0001274  86.7383 273.3755 15.08832122 20482,6917.904,95.438,540.651,538.888,0.0
